OBJECT B                
1 51825U 22019B   26046.91105356  .00056561  00000+0  72636-3 0  9992
2 51825  97.3577 133.4732 0007325 207.6268 152.4600 15.58912484220775
